{
  "type": "FeatureCollection",
  "features": [
    {
      "type": "Feature",
      "properties": {
        "id": "registered-devonianGarden",
        "canonicalGardenId": "devonianGarden",
        "titleAr": "الحديقة الديفونية",
        "footprintId": "garden-footprint-candidate-20",
        "sourceObjectIndex": 268528,
        "sourceLayer": "curves",
        "knowledgeGuidePages": [
          10,
          13
        ],
        "siteDirectoryNumber": 1,
        "semanticEvidence": "Site Directory numbered Crescent topology",
        "registrationMethod": "site-directory-topology-to-rhino-source-curve",
        "confidence": "high",
        "centroid": [
          1015.727,
          593.321
        ],
        "geometryAreaSqm": 3209.3,
        "knowledgeAreaIsIndependent": true
      },
      "geometry": {
        "type": "Polygon",
        "coordinates": [
          [
            [
              1047.843062851429,
              593.321110884659
            ],
            [
              1046.6521231758747,
              584.6563812538755
            ],
            [
              1043.167630696761,
              576.6342749813067
            ],
            [
              1040.639859429278,
              573.0532389328125
            ],
            [
              1034.2478276655704,
              567.0834979989745
            ],
            [
              1030.5026386269153,
              564.8059980920445
            ],
            [
              1026.4822129504266,
              563.0596807837755
            ],
            [
              1017.9189554019457,
              561.280215402328
            ],
            [
              1013.535640815776,
              561.280215402328
            ],
            [
              1004.972383267295,
              563.0596807837755
            ],
            [
              997.2067685521513,
              567.0834979989745
            ],
            [
              993.8065819369501,
              569.8497549904947
            ],
            [
              988.2869655209606,
              576.6342749813067
            ],
            [
              986.2703557304869,
              580.5261552099743
            ],
            [
              983.9106613321894,
              588.9480148165001
            ],
            [
              983.6115333662926,
              593.321110884659
            ],
            [
              984.802473041847,
              601.9858405154425
            ],
            [
              988.2869655209606,
              610.0079467880113
            ],
            [
              990.8147367884437,
              613.5889828365055
            ],
            [
              997.2067685521513,
              619.5587237703435
            ],
            [
              1000.9519575908064,
              621.8362236772734
            ],
            [
              1004.972383267295,
              623.5825409855424
            ],
            [
              1013.535640815776,
              625.3620063669899
            ],
            [
              1017.9189554019457,
              625.3620063669899
            ],
            [
              1026.4822129504266,
              623.5825409855424
            ],
            [
              1034.2478276655704,
              619.5587237703435
            ],
            [
              1037.6480142807716,
              616.7924667788233
            ],
            [
              1043.167630696761,
              610.0079467880113
            ],
            [
              1045.1842404872348,
              606.1160665593437
            ],
            [
              1047.5439348855323,
              597.6942069528179
            ],
            [
              1047.843062851429,
              593.321110884659
            ]
          ]
        ]
      }
    },
    {
      "type": "Feature",
      "properties": {
        "id": "registered-plioceneGarden",
        "canonicalGardenId": "plioceneGarden",
        "titleAr": "الحديقة البليوسينية",
        "footprintId": "garden-footprint-candidate-24",
        "sourceObjectIndex": 247584,
        "sourceLayer": "curves",
        "knowledgeGuidePages": [
          10,
          13
        ],
        "siteDirectoryNumber": 6,
        "semanticEvidence": "Site Directory numbered Crescent topology",
        "registrationMethod": "site-directory-topology-to-rhino-source-curve",
        "confidence": "high",
        "centroid": [
          1221.966,
          484.033
        ],
        "geometryAreaSqm": 1947.3,
        "knowledgeAreaIsIndependent": true
      },
      "geometry": {
        "type": "Polygon",
        "coordinates": [
          [
            [
              1229.887869124117,
              464.2719097371587
            ],
            [
              1222.6045223867018,
              444.7103346251894
            ],
            [
              1219.8125648265334,
              444.77211528915905
            ],
            [
              1202.5656145024682,
              456.5472291466301
            ],
            [
              1199.2535362317392,
              459.07127597460806
            ],
            [
              1197.5614842520704,
              462.82227001593355
            ],
            [
              1198.2694276050916,
              466.875887216518
            ],
            [
              1203.8956461378891,
              478.0636639084728
            ],
            [
              1209.4325562691029,
              493.8130051693586
            ],
            [
              1211.3881248626578,
              497.49646059054453
            ],
            [
              1226.078429809432,
              517.7986464760861
            ],
            [
              1229.0223072027136,
              520.7319553487397
            ],
            [
              1232.7894270814013,
              522.4863319756837
            ],
            [
              1245.2463971245268,
              523.7457013959123
            ],
            [
              1245.3964357998655,
              520.6385765979355
            ],
            [
              1241.3678177991465,
              504.4252562813226
            ],
            [
              1229.887869124093,
              464.2719097371182
            ],
            [
              1229.887869124117,
              464.2719097371587
            ]
          ]
        ]
      }
    },
    {
      "type": "Feature",
      "properties": {
        "id": "registered-optionsGarden",
        "canonicalGardenId": "optionsGarden",
        "titleAr": "حديقة الخيارات",
        "footprintId": "garden-footprint-candidate-23",
        "sourceObjectIndex": 247582,
        "sourceLayer": "curves",
        "knowledgeGuidePages": [
          10,
          13
        ],
        "siteDirectoryNumber": 7,
        "semanticEvidence": "Site Directory numbered Crescent topology",
        "registrationMethod": "site-directory-topology-to-rhino-source-curve",
        "confidence": "high",
        "centroid": [
          1244.47,
          571.505
        ],
        "geometryAreaSqm": 3769.8,
        "knowledgeAreaIsIndependent": true
      },
      "geometry": {
        "type": "Polygon",
        "coordinates": [
          [
            [
              1247.559481497133,
              529.9673076835442
            ],
            [
              1248.692159922556,
              535.056211666569
            ],
            [
              1249.79311919392,
              540.1520720303969
            ],
            [
              1251.899710651454,
              550.3638708236762
            ],
            [
              1256.6328742385992,
              575.9968362805896
            ],
            [
              1257.8786315795946,
              581.05744742749
            ],
            [
              1261.7041845415176,
              590.7421064812775
            ],
            [
              1267.1997715524467,
              599.5866528154822
            ],
            [
              1274.188260439007,
              607.3060115670238
            ],
            [
              1278.1736429168427,
              610.6643479167866
            ],
            [
              1286.9660493654624,
              616.2429736700395
            ],
            [
              1296.6142567318768,
              620.1595501173016
            ],
            [
              1306.8072867827186,
              622.2878392976579
            ],
            [
              1312.005840731405,
              622.6576140606886
            ],
            [
              1312.4146027574452,
              623.7878057942243
            ],
            [
              1298.0319443418587,
              629.9171708562627
            ],
            [
              1283.1254219484792,
              634.6315710618945
            ],
            [
              1278.0489476815956,
              634.1966642423454
            ],
            [
              1273.0451556506296,
              632.7375106538038
            ],
            [
              1258.8908058868833,
              626.1626552656029
            ],
            [
              1247.1822470180373,
              603.023403378681
            ],
            [
              1244.1606256252076,
              599.3126329471518
            ],
            [
              1234.1956842570025,
              596.3422780979932
            ],
            [
              1229.883300278476,
              593.6453089489918
            ],
            [
              1228.4963205442557,
              588.7971279798846
            ],
            [
              1229.6375820857777,
              583.710148799678
            ],
            [
              1229.4724795961467,
              578.5236680766175
            ],
            [
              1226.4459943214897,
              568.6459385718706
            ],
            [
              1225.2727365589915,
              558.3312604116218
            ],
            [
              1222.9060756504032,
              554.398792367943
            ],
            [
              1213.047865985204,
              551.0026431283294
            ],
            [
              1209.4405979949554,
              547.6341584602274
            ],
            [
              1208.6388815465675,
              542.5419161060006
            ],
            [
              1209.5157025553829,
              541.5738332416204
            ],
            [
              1211.9363728298672,
              545.5733735384028
            ],
            [
              1216.2257662073648,
              548.3723449414862
            ],
            [
              1221.3340194630537,
              547.9990150452776
            ],
            [
              1225.1709962804812,
              544.606408204306
            ],
            [
              1226.1658999716483,
              539.5821368036388
            ],
            [
              1223.9120557943606,
              534.9828626340806
            ],
            [
              1219.331769942542,
              532.6906763462998
            ],
            [
              1199.0191897906311,
              509.34698998240754
            ],
            [
              1187.5816655141887,
              498.68640637179556
            ],
            [
              1179.4594142549488,
              492.1504752148686
            ],
            [
              1178.5308453051832,
              488.5793073941246
            ],
            [
              1181.8027778945552,
              485.3629573323004
            ],
            [
              1201.1709498178934,
              502.7916931207408
            ],
            [
              1202.8614715487593,
              501.39796882353255
            ],
            [
              1201.9644722911362,
              496.2665665154691
            ],
            [
              1198.501833077919,
              486.44057929374117
            ],
            [
              1191.4583630642605,
              472.4915303279305
            ],
            [
              1192.767907899799,
              469.2841917759141
            ],
            [
              1199.5825111504937,
              483.3459186171201
            ],
            [
              1204.7942430001576,
              498.0736172436583
            ],
            [
              1223.0136378982827,
              523.467457342496
            ],
            [
              1227.140848353732,
              526.6228730358971
            ],
            [
              1231.997348816613,
              528.4681149159144
            ],
            [
              1237.1711083845084,
              529.0719461742947
            ],
            [
              1242.365294940832,
              529.5196269289204
            ],
            [
              1247.559481497133,
              529.9673076835442
            ]
          ]
        ]
      }
    },
    {
      "type": "Feature",
      "properties": {
        "id": "registered-butterflyGarden",
        "canonicalGardenId": "butterflyGarden",
        "titleAr": "حديقة الفراشات",
        "footprintId": "garden-footprint-candidate-03",
        "sourceObjectIndex": 271284,
        "sourceLayer": "curves",
        "knowledgeGuidePages": [
          11,
          13
        ],
        "siteDirectoryNumber": 15,
        "semanticEvidence": "Butterfly Garden Outline + Site Directory location/area cross-check",
        "registrationMethod": "site-directory-topology-to-rhino-source-curve",
        "confidence": "high",
        "centroid": [
          696.223,
          916.257
        ],
        "geometryAreaSqm": 2613.8,
        "knowledgeAreaIsIndependent": true
      },
      "geometry": {
        "type": "Polygon",
        "coordinates": [
          [
            [
              667.3698459848529,
              880.6528840409592
            ],
            [
              740.9647618326126,
              926.1717105885036
            ],
            [
              725.0759710093262,
              951.8607344995253
            ],
            [
              651.4810551613336,
              906.3419079519808
            ],
            [
              667.3698459848529,
              880.6528840409592
            ]
          ]
        ]
      }
    },
    {
      "type": "Feature",
      "properties": {
        "id": "registered-mazeGarden",
        "canonicalGardenId": "mazeGarden",
        "titleAr": "حديقة المتاهة",
        "footprintId": "garden-footprint-candidate-01",
        "sourceObjectIndex": 247564,
        "sourceLayer": "curves",
        "knowledgeGuidePages": [
          11,
          13
        ],
        "siteDirectoryNumber": 17,
        "semanticEvidence": "Maze LS-BASE PLAN + Site Directory location/area cross-check",
        "registrationMethod": "site-directory-topology-to-rhino-source-curve",
        "confidence": "high",
        "centroid": [
          853.467,
          966.942
        ],
        "geometryAreaSqm": 5527.4,
        "knowledgeAreaIsIndependent": true
      },
      "geometry": {
        "type": "Polygon",
        "coordinates": [
          [
            [
              911.9902873527868,
              965.292542658369
            ],
            [
              912.9289273520712,
              960.7862043692733
            ],
            [
              916.644963567379,
              952.3883427830533
            ],
            [
              922.5487211858014,
              945.3542365599635
            ],
            [
              895.1313404442901,
              945.1321744789864
            ],
            [
              872.1927422560541,
              943.0962996332901
            ],
            [
              844.9695530308933,
              938.3631390728885
            ],
            [
              822.6899239314708,
              932.5371455592592
            ],
            [
              814.0687673193761,
              948.628336841185
            ],
            [
              804.4744739268288,
              964.3570219589071
            ],
            [
              793.8411517833423,
              979.4027675844175
            ],
            [
              785.213259055565,
              990.1975493859691
            ],
            [
              786.683641499804,
              991.9862775821177
            ],
            [
              827.8425407859529,
              996.8405552792826
            ],
            [
              836.9787376275801,
              995.7835116843978
            ],
            [
              858.6067638770778,
              988.0050818485381
            ],
            [
              876.7691969405173,
              985.0495494533659
            ],
            [
              895.165602672087,
              985.4754633910388
            ],
            [
              913.1725171435005,
              989.2659989021902
            ],
            [
              914.6333210975491,
              987.9211635675497
            ],
            [
              912.1782033489551,
              979.0573308650705
            ],
            [
              911.5811281922012,
              969.879170123713
            ],
            [
              911.9902873528031,
              965.2925426581689
            ],
            [
              911.9902873527868,
              965.292542658369
            ]
          ]
        ]
      }
    },
    {
      "type": "Feature",
      "properties": {
        "id": "registered-soundLightGarden",
        "canonicalGardenId": "soundLightGarden",
        "titleAr": "حديقة الصوت والضوء",
        "footprintId": "garden-footprint-candidate-02",
        "sourceObjectIndex": 247565,
        "sourceLayer": "curves",
        "knowledgeGuidePages": [
          11,
          13
        ],
        "siteDirectoryNumber": 18,
        "semanticEvidence": "Sound and Light Garden Outline + Site Directory location/area cross-check",
        "registrationMethod": "site-directory-topology-to-rhino-source-curve",
        "confidence": "high",
        "centroid": [
          981.555,
          965.212
        ],
        "geometryAreaSqm": 2329.6,
        "knowledgeAreaIsIndependent": true
      },
      "geometry": {
        "type": "Polygon",
        "coordinates": [
          [
            [
              1039.7202958299406,
              971.7358737704492
            ],
            [
              1038.8010085065994,
              980.5149451907196
            ],
            [
              1035.769525774959,
              988.8051379890585
            ],
            [
              1030.808722516102,
              996.1063444107931
            ],
            [
              1023.7431800158787,
              999.9843875563736
            ],
            [
              1014.962334108716,
              998.9036962075184
            ],
            [
              997.282124650872,
              998.8387132679861
            ],
            [
              1001.4425096167262,
              992.8558973693921
            ],
            [
              1008.7670141459201,
              990.559032087961
            ],
            [
              1017.5973161667258,
              991.1088914412992
            ],
            [
              1025.52932180545,
              989.9732856419591
            ],
            [
              1029.9068263756033,
              982.3246010092407
            ],
            [
              1031.6955892062033,
              973.6952759830081
            ],
            [
              1030.6911964690971,
              964.9340052250104
            ],
            [
              1027.461053837167,
              956.7206828428939
            ],
            [
              1022.4304973413015,
              949.4542583018551
            ],
            [
              1015.637512927872,
              935.1963766506574
            ],
            [
              981.9886992765121,
              945.5618140062481
            ],
            [
              976.2763150043058,
              945.6392490013786
            ],
            [
              968.7331762600535,
              947.7682202731814
            ],
            [
              951.3100857342527,
              950.8543314866097
            ],
            [
              935.7541010787269,
              952.0148105903336
            ],
            [
              928.0227803727579,
              953.5837915026632
            ],
            [
              922.1737565548603,
              957.299828253218
            ],
            [
              923.4801392497901,
              964.0383914881252
            ],
            [
              922.6098155248786,
              972.8142871425719
            ],
            [
              924.0792400843667,
              981.5153654442345
            ],
            [
              930.8245687798724,
              985.6573750613002
            ],
            [
              939.4832256519549,
              987.4824773131008
            ],
            [
              941.7258544352269,
              994.6347421009748
            ],
            [
              949.9425206333357,
              990.5011432247345
            ],
            [
              957.6909535993232,
              990.4161240829064
            ],
            [
              983.8547559951561,
              992.3431808080068
            ],
            [
              990.60914085886,
              997.6073291357034
            ],
            [
              984.5737212370999,
              999.8117288565511
            ],
            [
              958.078088791137,
              998.352072143025
            ],
            [
              940.5644513309467,
              995.8241341416992
            ],
            [
              923.2729661165888,
              992.0661417644887
            ],
            [
              917.3836700845516,
              986.6674146129155
            ],
            [
              915.1050645492272,
              978.1331336720677
            ],
            [
              914.6513553254287,
              969.3115611193325
            ],
            [
              916.1541401298057,
              960.6160244087623
            ],
            [
              920.0602099551315,
              952.7114583422574
            ],
            [
              926.1061530276891,
              946.2938171444764
            ],
            [
              934.5229585387823,
              944.561275715859
            ],
            [
              960.8614934921909,
              941.2997372670552
            ],
            [
              978.2177250115718,
              937.84719001642
            ],
            [
              1003.7993555591394,
              930.780632504257
            ],
            [
              1027.7059907496532,
              922.3732817346224
            ],
            [
              1025.3169832422404,
              930.8335905759245
            ],
            [
              1026.392997386164,
              939.5586336201025
            ],
            [
              1035.4192049355677,
              954.696995366221
            ],
            [
              1038.4523393366874,
              962.9936443574404
            ],
            [
              1039.7202958299406,
              971.7358737704492
            ]
          ]
        ]
      }
    }
  ],
  "metadata": {
    "designation": "KAGA-SPATIAL-REGISTERED-V1",
    "coordinateSpace": "KAGA-SOURCE-2D-V1",
    "sourceRhinoSha256": "e754894193c1da6660218757a19adc2f5dfacde7b2f27aefd35597d860007a9e",
    "evidencePolicy": "Only exact/high registrations are included."
  }
}