{
  "type": "FeatureCollection",
  "features": [
    {
      "type": "Feature",
      "properties": {
        "id": "crescent-footprint-candidate-01",
        "titleAr": "مرشح بصمة مبنى الهلالين",
        "sourceLayer": "curves",
        "sourceObjectIndex": 269736,
        "sourceAreaSqm": 93414.6,
        "sourceConfidence": "approximate",
        "registrationStatus": "visual-cross-check-required"
      },
      "geometry": {
        "type": "Polygon",
        "coordinates": [
          [
            [
              979.8318253047764,
              482.4905836461112
            ],
            [
              968.4342680775491,
              489.92471640916233
            ],
            [
              954.2154421680226,
              501.1890197322432
            ],
            [
              941.2575097637116,
              513.8835668846665
            ],
            [
              929.7036301037626,
              527.8681085075876
            ],
            [
              919.6814504523925,
              542.9881433830585
            ],
            [
              911.301695851893,
              559.0766253635064
            ],
            [
              906.1511260104589,
              571.671952711182
            ],
            [
              900.8568863353801,
              589.0221851552333
            ],
            [
              898.0980959618848,
              602.3473386763641
            ],
            [
              896.0681589077743,
              620.3734002305733
            ],
            [
              895.9415265530621,
              638.5129565604987
            ],
            [
              897.7195979320218,
              656.5656018450854
            ],
            [
              901.382728911792,
              674.3318904565215
            ],
            [
              905.3435738528203,
              687.350429085712
            ],
            [
              912.1958950885269,
              704.1464176925931
            ],
            [
              920.7733417918869,
              720.1303767657016
            ],
            [
              930.9811503304351,
              735.1257155228
            ],
            [
              942.7065448339059,
              748.9667654590501
            ],
            [
              955.8199831420662,
              761.5006106526796
            ],
            [
              966.4793452449122,
              769.959253584439
            ],
            [
              981.6649225530616,
              779.8818430356866
            ],
            [
              997.8081315030142,
              788.1556779626089
            ],
            [
              1010.4370380223031,
              793.2233560121358
            ],
            [
              1027.8216911862426,
              798.4034500237656
            ],
            [
              1045.6540360052013,
              801.7301627942868
            ],
            [
              1063.737060730944,
              803.1667408005121
            ],
            [
              1077.3436990211135,
              802.9934343462689
            ],
            [
              1095.3842683476055,
              801.0967535676903
            ],
            [
              1108.7294437347239,
              798.4365027198105
            ],
            [
              1126.1183234726946,
              793.2706145040063
            ],
            [
              1142.8689136574367,
              786.3080526146862
            ],
            [
              1158.7961537660763,
              777.625739436648
            ],
            [
              1173.7240796475035,
              767.3195971671853
            ],
            [
              1184.1645448953032,
              758.5922077467415
            ],
            [
              1196.954496147456,
              745.7284335506761
            ],
            [
              1208.323559800042,
              731.5932317033999
            ],
            [
              1218.146130436122,
              716.3427679170422
            ],
            [
              1226.313688293835,
              700.1455293178024
            ],
            [
              1232.7359981927434,
              683.180463000155
            ],
            [
              1236.3639802380387,
              670.0652662053824
            ],
            [
              1239.573421241756,
              652.211442300027
            ],
            [
              1240.7402022870806,
              638.6538148276827
            ],
            [
              1240.628390832287,
              620.5141610879231
            ],
            [
              1239.2945684124893,
              606.971947146361
            ],
            [
              1235.8652803978157,
              589.1590438649695
            ],
            [
              1230.5852184333398,
              571.8044915731041
            ],
            [
              1223.5127166444377,
              555.1000233670891
            ],
            [
              1217.078334508296,
              543.109636917408
            ],
            [
              1207.0685119709274,
              527.9814185037885
            ],
            [
              1195.5260621856569,
              513.9874414938633
            ],
            [
              1182.5785061394445,
              501.2823113477384
            ],
            [
              1172.0312483607706,
              492.68428866593547
            ],
            [
              1156.9774090412848,
              482.56295173137505
            ],
            [
              1140.9443489865794,
              474.07763942822487
            ],
            [
              1128.3831448768444,
              468.8444002783126
            ],
            [
              1111.0680826113482,
              463.43624362915943
            ],
            [
              1093.2810058559173,
              459.8754234853993
            ],
            [
              1075.2184262372145,
              458.20127978851474
            ],
            [
              1061.6106854334203,
              458.19572071034884
            ],
            [
              1043.546743990751,
              459.85510588432066
            ],
            [
              1030.1677542080918,
              462.33971311326025
            ],
            [
              1012.7124744124828,
              467.2765893378371
            ],
            [
              995.8718129010763,
              474.01837392784125
            ],
            [
              979.8318253047764,
              482.4905836461112
            ]
          ]
        ]
      }
    }
  ],
  "metadata": {
    "coordinateSpace": "KAGA-SOURCE-2D-V1",
    "axisDirection": {
      "x": "right",
      "y": "down"
    },
    "units": "model-meters-transformed-to-svg"
  }
}
