{
  "type": "FeatureCollection",
  "features": [
    {
      "type": "Feature",
      "properties": {
        "id": "garden-footprint-candidate-01",
        "titleAr": "بصمة حديقة مرشحة 01",
        "sourceLayer": "curves",
        "sourceObjectIndex": 247564,
        "sourceAreaSqm": 5527.4,
        "sourceConfidence": "candidate-unregistered",
        "registrationStatus": "requires-site-directory-registration"
      },
      "geometry": {
        "type": "Polygon",
        "coordinates": [
          [
            [
              911.9902873527868,
              965.292542658369
            ],
            [
              912.9289273520712,
              960.7862043692733
            ],
            [
              916.644963567379,
              952.3883427830533
            ],
            [
              922.5487211858014,
              945.3542365599635
            ],
            [
              895.1313404442901,
              945.1321744789864
            ],
            [
              872.1927422560541,
              943.0962996332901
            ],
            [
              844.9695530308933,
              938.3631390728885
            ],
            [
              822.6899239314708,
              932.5371455592592
            ],
            [
              814.0687673193761,
              948.628336841185
            ],
            [
              804.4744739268288,
              964.3570219589071
            ],
            [
              793.8411517833423,
              979.4027675844175
            ],
            [
              785.213259055565,
              990.1975493859691
            ],
            [
              786.683641499804,
              991.9862775821177
            ],
            [
              827.8425407859529,
              996.8405552792826
            ],
            [
              836.9787376275801,
              995.7835116843978
            ],
            [
              858.6067638770778,
              988.0050818485381
            ],
            [
              876.7691969405173,
              985.0495494533659
            ],
            [
              895.165602672087,
              985.4754633910388
            ],
            [
              913.1725171435005,
              989.2659989021902
            ],
            [
              914.6333210975491,
              987.9211635675497
            ],
            [
              912.1782033489551,
              979.0573308650705
            ],
            [
              911.5811281922012,
              969.879170123713
            ],
            [
              911.9902873528031,
              965.2925426581689
            ],
            [
              911.9902873527868,
              965.292542658369
            ]
          ]
        ]
      }
    },
    {
      "type": "Feature",
      "properties": {
        "id": "garden-footprint-candidate-02",
        "titleAr": "بصمة حديقة مرشحة 02",
        "sourceLayer": "curves",
        "sourceObjectIndex": 247565,
        "sourceAreaSqm": 2329.6,
        "sourceConfidence": "candidate-unregistered",
        "registrationStatus": "requires-site-directory-registration"
      },
      "geometry": {
        "type": "Polygon",
        "coordinates": [
          [
            [
              1039.7202958299406,
              971.7358737704492
            ],
            [
              1038.8010085065994,
              980.5149451907196
            ],
            [
              1035.769525774959,
              988.8051379890585
            ],
            [
              1030.808722516102,
              996.1063444107931
            ],
            [
              1023.7431800158787,
              999.9843875563736
            ],
            [
              1014.962334108716,
              998.9036962075184
            ],
            [
              997.282124650872,
              998.8387132679861
            ],
            [
              1001.4425096167262,
              992.8558973693921
            ],
            [
              1008.7670141459201,
              990.559032087961
            ],
            [
              1017.5973161667258,
              991.1088914412992
            ],
            [
              1025.52932180545,
              989.9732856419591
            ],
            [
              1029.9068263756033,
              982.3246010092407
            ],
            [
              1031.6955892062033,
              973.6952759830081
            ],
            [
              1030.6911964690971,
              964.9340052250104
            ],
            [
              1027.461053837167,
              956.7206828428939
            ],
            [
              1022.4304973413015,
              949.4542583018551
            ],
            [
              1015.637512927872,
              935.1963766506574
            ],
            [
              981.9886992765121,
              945.5618140062481
            ],
            [
              976.2763150043058,
              945.6392490013786
            ],
            [
              968.7331762600535,
              947.7682202731814
            ],
            [
              951.3100857342527,
              950.8543314866097
            ],
            [
              935.7541010787269,
              952.0148105903336
            ],
            [
              928.0227803727579,
              953.5837915026632
            ],
            [
              922.1737565548603,
              957.299828253218
            ],
            [
              923.4801392497901,
              964.0383914881252
            ],
            [
              922.6098155248786,
              972.8142871425719
            ],
            [
              924.0792400843667,
              981.5153654442345
            ],
            [
              930.8245687798724,
              985.6573750613002
            ],
            [
              939.4832256519549,
              987.4824773131008
            ],
            [
              941.7258544352269,
              994.6347421009748
            ],
            [
              949.9425206333357,
              990.5011432247345
            ],
            [
              957.6909535993232,
              990.4161240829064
            ],
            [
              983.8547559951561,
              992.3431808080068
            ],
            [
              990.60914085886,
              997.6073291357034
            ],
            [
              984.5737212370999,
              999.8117288565511
            ],
            [
              958.078088791137,
              998.352072143025
            ],
            [
              940.5644513309467,
              995.8241341416992
            ],
            [
              923.2729661165888,
              992.0661417644887
            ],
            [
              917.3836700845516,
              986.6674146129155
            ],
            [
              915.1050645492272,
              978.1331336720677
            ],
            [
              914.6513553254287,
              969.3115611193325
            ],
            [
              916.1541401298057,
              960.6160244087623
            ],
            [
              920.0602099551315,
              952.7114583422574
            ],
            [
              926.1061530276891,
              946.2938171444764
            ],
            [
              934.5229585387823,
              944.561275715859
            ],
            [
              960.8614934921909,
              941.2997372670552
            ],
            [
              978.2177250115718,
              937.84719001642
            ],
            [
              1003.7993555591394,
              930.780632504257
            ],
            [
              1027.7059907496532,
              922.3732817346224
            ],
            [
              1025.3169832422404,
              930.8335905759245
            ],
            [
              1026.392997386164,
              939.5586336201025
            ],
            [
              1035.4192049355677,
              954.696995366221
            ],
            [
              1038.4523393366874,
              962.9936443574404
            ],
            [
              1039.7202958299406,
              971.7358737704492
            ]
          ]
        ]
      }
    },
    {
      "type": "Feature",
      "properties": {
        "id": "garden-footprint-candidate-03",
        "titleAr": "بصمة حديقة مرشحة 03",
        "sourceLayer": "curves",
        "sourceObjectIndex": 271284,
        "sourceAreaSqm": 2613.8,
        "sourceConfidence": "candidate-unregistered",
        "registrationStatus": "requires-site-directory-registration"
      },
      "geometry": {
        "type": "Polygon",
        "coordinates": [
          [
            [
              667.3698459848529,
              880.6528840409592
            ],
            [
              740.9647618326126,
              926.1717105885036
            ],
            [
              725.0759710093262,
              951.8607344995253
            ],
            [
              651.4810551613336,
              906.3419079519808
            ],
            [
              667.3698459848529,
              880.6528840409592
            ]
          ]
        ]
      }
    },
    {
      "type": "Feature",
      "properties": {
        "id": "garden-footprint-candidate-04",
        "titleAr": "بصمة حديقة مرشحة 04",
        "sourceLayer": "curves",
        "sourceObjectIndex": 271098,
        "sourceAreaSqm": 2492.4,
        "sourceConfidence": "candidate-unregistered",
        "registrationStatus": "requires-site-directory-registration"
      },
      "geometry": {
        "type": "Polygon",
        "coordinates": [
          [
            [
              667.5294411926297,
              881.3453826839104
            ],
            [
              740.0990148790879,
              926.2278583594598
            ],
            [
              724.7370648867218,
              951.0715477541089
            ],
            [
              652.1674910810543,
              906.1890720836818
            ],
            [
              667.5294411926297,
              881.3453826839104
            ]
          ]
        ]
      }
    },
    {
      "type": "Feature",
      "properties": {
        "id": "garden-footprint-candidate-05",
        "titleAr": "بصمة حديقة مرشحة 05",
        "sourceLayer": "curves",
        "sourceObjectIndex": 247642,
        "sourceAreaSqm": 3349.1,
        "sourceConfidence": "candidate-unregistered",
        "registrationStatus": "requires-site-directory-registration"
      },
      "geometry": {
        "type": "Polygon",
        "coordinates": [
          [
            [
              1075.9527536060418,
              896.3852562022803
            ],
            [
              1093.5285038545026,
              886.8970369264127
            ],
            [
              1108.2247908636953,
              880.6188773733315
            ],
            [
              1127.2311291169758,
              874.4794630669746
            ],
            [
              1142.8230349416551,
              870.9739514089079
            ],
            [
              1154.6754393871468,
              869.1808169602054
            ],
            [
              1170.6065270920974,
              867.9172570021165
            ],
            [
              1186.5876134585337,
              867.9491596511482
            ],
            [
              1214.458339888805,
              870.1853127683917
            ],
            [
              1226.4053122375299,
              869.324957246401
            ],
            [
              1234.2405582741424,
              867.7629465082928
            ],
            [
              1216.3383468119387,
              881.051084742872
            ],
            [
              1195.8628290943764,
              893.5175146676213
            ],
            [
              1181.6402635019167,
              900.8013507889284
            ],
            [
              1174.1125540081678,
              903.4737923343414
            ],
            [
              1166.320292627774,
              905.2313521812753
            ],
            [
              1154.378799541576,
              906.10128645901
            ],
            [
              1146.4140862430618,
              905.4916176075853
            ],
            [
              1138.5785376178067,
              903.9383849214778
            ],
            [
              1119.5549821775126,
              897.8624249642282
            ],
            [
              1103.8148151667767,
              895.165953807624
            ],
            [
              1091.839325040413,
              894.7602447303777
            ],
            [
              1075.9527536060432,
              896.38525620262
            ],
            [
              1075.9527536060418,
              896.3852562022803
            ]
          ]
        ]
      }
    },
    {
      "type": "Feature",
      "properties": {
        "id": "garden-footprint-candidate-06",
        "titleAr": "بصمة حديقة مرشحة 06",
        "sourceLayer": "curves",
        "sourceObjectIndex": 247559,
        "sourceAreaSqm": 2409.4,
        "sourceConfidence": "candidate-unregistered",
        "registrationStatus": "requires-site-directory-registration"
      },
      "geometry": {
        "type": "Polygon",
        "coordinates": [
          [
            [
              1340.9537999324975,
              820.9186370424068
            ],
            [
              1347.7619587237896,
              819.5532084025788
            ],
            [
              1361.4876014781914,
              817.4500436326364
            ],
            [
              1375.3161569353488,
              816.1900336964411
            ],
            [
              1396.1387013077535,
              815.8903805281129
            ],
            [
              1409.9977878992177,
              816.7519430164355
            ],
            [
              1444.4395522569469,
              821.1072605463883
            ],
            [
              1479.063956642727,
              823.6135334185508
            ],
            [
              1499.7043477798547,
              826.3328653297654
            ],
            [
              1505.4969354716486,
              829.9845088922352
            ],
            [
              1508.3493316631366,
              836.2096521710066
            ],
            [
              1507.332753113428,
              842.9812945808449
            ],
            [
              1502.7782131378665,
              848.0944871730969
            ],
            [
              1483.3960109928107,
              855.6578764394078
            ],
            [
              1463.1116993419437,
              860.3262308537949
            ],
            [
              1449.3099107215787,
              861.8242079797524
            ],
            [
              1428.4963658085396,
              861.6164094217106
            ],
            [
              1414.7272364114256,
              859.8431693824987
            ],
            [
              1394.438135380478,
              855.1462156502828
            ],
            [
              1380.74039171575,
              852.8900181421222
            ],
            [
              1366.8865421470173,
              852.0015020604746
            ],
            [
              1353.012805787238,
              852.489403812639
            ],
            [
              1339.2555972878763,
              854.3489260645924
            ],
            [
              1325.7501855306436,
              857.5617849111695
            ],
            [
              1306.253672614703,
              864.8459098704745
            ],
            [
              1288.0524853363193,
              874.9399315645967
            ],
            [
              1285.7671600496822,
              873.1052342880303
            ],
            [
              1288.7192966984928,
              867.4156918875672
            ],
            [
              1300.895298370222,
              860.7466352025372
            ],
            [
              1320.2079040519309,
              852.9838957311606
            ],
            [
              1340.4281222219151,
              848.0463214809965
            ],
            [
              1361.1449872264338,
              846.034266138269
            ],
            [
              1375.0243724657753,
              846.34085895626
            ],
            [
              1388.811891420037,
              847.9643289633623
            ],
            [
              1422.7872661462138,
              854.9962816999218
            ],
            [
              1436.6298430930187,
              856.0469511519477
            ],
            [
              1450.5086470228305,
              855.7312862925357
            ],
            [
              1471.1007033637684,
              852.706222820959
            ],
            [
              1484.4839136060302,
              849.0169781235923
            ],
            [
              1497.439466881713,
              844.0295457033415
            ],
            [
              1502.2611311022665,
              839.4472773194409
            ],
            [
              1500.2230230573475,
              833.2088655215596
            ],
            [
              1493.6283378400199,
              831.3407692986846
            ],
            [
              1486.7487769361455,
              830.3994788826521
            ],
            [
              1452.1265191084203,
              827.8759776265317
            ],
            [
              1410.7729440636715,
              822.853906125142
            ],
            [
              1396.9186599076704,
              821.9200585190333
            ],
            [
              1369.171011390853,
              822.6682976478451
            ],
            [
              1341.7360233649713,
              826.8888772320333
            ],
            [
              1340.9537999324975,
              820.9186370424068
            ]
          ]
        ]
      }
    },
    {
      "type": "Feature",
      "properties": {
        "id": "garden-footprint-candidate-07",
        "titleAr": "بصمة حديقة مرشحة 07",
        "sourceLayer": "curves",
        "sourceObjectIndex": 248929,
        "sourceAreaSqm": 2157.0,
        "sourceConfidence": "candidate-unregistered",
        "registrationStatus": "requires-site-directory-registration"
      },
      "geometry": {
        "type": "Polygon",
        "coordinates": [
          [
            [
              1046.8140467168416,
              819.911446158771
            ],
            [
              1070.0712074313556,
              816.7179411890106
            ],
            [
              1088.2786041642864,
              812.0967847284915
            ],
            [
              1090.7873157262984,
              814.2556741253554
            ],
            [
              1099.0847202828259,
              846.078540430191
            ],
            [
              1099.3013270866195,
              850.207787769426
            ],
            [
              1078.2344190079073,
              860.5827589611608
            ],
            [
              1051.8778466166714,
              870.5428091481219
            ],
            [
              1050.901077542617,
              866.7144826457074
            ],
            [
              1046.8140467168996,
              819.9114461587742
            ],
            [
              1046.8140467168416,
              819.911446158771
            ]
          ]
        ]
      }
    },
    {
      "type": "Feature",
      "properties": {
        "id": "garden-footprint-candidate-08",
        "titleAr": "بصمة حديقة مرشحة 08",
        "sourceLayer": "curves",
        "sourceObjectIndex": 247630,
        "sourceAreaSqm": 2646.0,
        "sourceConfidence": "candidate-unregistered",
        "registrationStatus": "requires-site-directory-registration"
      },
      "geometry": {
        "type": "Polygon",
        "coordinates": [
          [
            [
              637.0115167155163,
              804.5089776432142
            ],
            [
              648.7486630954375,
              798.5400344770758
            ],
            [
              648.8150822741325,
              794.478048602544
            ],
            [
              642.9121910836693,
              782.6787564277056
            ],
            [
              640.0017755560543,
              782.6286752030505
            ],
            [
              617.6268568301901,
              796.5956168699145
            ],
            [
              597.9372617488857,
              806.3727177369883
            ],
            [
              577.4620539304242,
              814.3750749285587
            ],
            [
              552.1158826919016,
              821.6739608618623
            ],
            [
              548.5289325944916,
              824.1580353070412
            ],
            [
              546.3323503472259,
              827.9278978087111
            ],
            [
              545.9399528478505,
              832.2733392193143
            ],
            [
              547.4252370947682,
              836.375983792441
            ],
            [
              572.9186721174011,
              877.4933943538667
            ],
            [
              575.910266571964,
              880.289244914811
            ],
            [
              579.1264550118553,
              877.3768416547182
            ],
            [
              579.2901207689594,
              874.05696726571
            ],
            [
              575.2081153696943,
              866.3017548112321
            ],
            [
              574.0715159043827,
              862.057225802871
            ],
            [
              573.7317969632302,
              853.2999043325387
            ],
            [
              575.9711429913411,
              844.82692270503
            ],
            [
              580.5932644743721,
              837.3809787561527
            ],
            [
              583.6785573024249,
              834.2522644814815
            ],
            [
              591.0591815635831,
              829.5265397953278
            ],
            [
              599.5000416959788,
              827.169005380086
            ],
            [
              608.2612554682689,
              827.3863105340804
            ],
            [
              611.1001027705963,
              825.6685246166423
            ],
            [
              614.356829551043,
              817.515578792913
            ],
            [
              617.3436754999512,
              814.3207972233895
            ],
            [
              637.0115167155163,
              804.5089776432142
            ]
          ]
        ]
      }
    },
    {
      "type": "Feature",
      "properties": {
        "id": "garden-footprint-candidate-09",
        "titleAr": "بصمة حديقة مرشحة 09",
        "sourceLayer": "curves",
        "sourceObjectIndex": 247585,
        "sourceAreaSqm": 3200.7,
        "sourceConfidence": "candidate-unregistered",
        "registrationStatus": "requires-site-directory-registration"
      },
      "geometry": {
        "type": "Polygon",
        "coordinates": [
          [
            [
              1605.818598810743,
              813.3715982637368
            ],
            [
              1605.5198748073667,
              809.0044079185836
            ],
            [
              1603.1633670990655,
              800.5939217576106
            ],
            [
              1601.149480674063,
              796.7072973857189
            ],
            [
              1595.6373183192559,
              789.9319396669373
            ],
            [
              1588.5015922611838,
              784.8949941969774
            ],
            [
              1580.2715266577989,
              781.9700281788539
            ],
            [
              1575.9349028882493,
              781.3739729613017
            ],
            [
              1567.2208840553094,
              781.9700281788539
            ],
            [
              1563.00581467522,
              783.1510352330354
            ],
            [
              1558.9908184519245,
              784.8949941969774
            ],
            [
              1551.8550923938521,
              789.9319396669373
            ],
            [
              1548.8672876342252,
              793.1310974091164
            ],
            [
              1544.3290436140428,
              800.5939217576106
            ],
            [
              1541.9725359057416,
              809.0044079185836
            ],
            [
              1541.6738119023653,
              813.3715982637368
            ],
            [
              1541.9725359057416,
              817.73878860889
            ],
            [
              1544.3290436140428,
              826.149274769863
            ],
            [
              1546.3429300390453,
              830.0358991417547
            ],
            [
              1551.8550923938524,
              836.8112568605363
            ],
            [
              1558.9908184519245,
              841.8482023304962
            ],
            [
              1567.2208840553094,
              844.7731683486197
            ],
            [
              1571.557507824859,
              845.369223566172
            ],
            [
              1580.2715266577989,
              844.7731683486197
            ],
            [
              1584.4865960378881,
              843.5921612944383
            ],
            [
              1588.5015922611838,
              841.8482023304962
            ],
            [
              1595.6373183192559,
              836.8112568605363
            ],
            [
              1601.149480674063,
              830.0358991417547
            ],
            [
              1603.1633670990655,
              826.149274769863
            ],
            [
              1605.5198748073667,
              817.73878860889
            ],
            [
              1605.818598810743,
              813.3715982637368
            ]
          ]
        ]
      }
    },
    {
      "type": "Feature",
      "properties": {
        "id": "garden-footprint-candidate-10",
        "titleAr": "بصمة حديقة مرشحة 10",
        "sourceLayer": "curves",
        "sourceObjectIndex": 247432,
        "sourceAreaSqm": 3827.4,
        "sourceConfidence": "candidate-unregistered",
        "registrationStatus": "requires-site-directory-registration"
      },
      "geometry": {
        "type": "Polygon",
        "coordinates": [
          [
            [
              1608.7508390293974,
              813.3683443223126
            ],
            [
              1608.474459377332,
              808.9754155486266
            ],
            [
              1606.2895054552296,
              800.4655818721671
            ],
            [
              1604.4153892137722,
              796.4828821299996
            ],
            [
              1599.2511917186844,
              789.374974064018
            ],
            [
              1596.0425529444933,
              786.3618616964632
            ],
            [
              1588.6244080677643,
              781.6541638057126
            ],
            [
              1580.2685609960954,
              778.9391845134173
            ],
            [
              1575.9016546858154,
              778.3875159535073
            ],
            [
              1567.1331340213749,
              778.9391845134173
            ],
            [
              1558.7772869497057,
              781.6541638057126
            ],
            [
              1551.3591420729767,
              786.3618616964632
            ],
            [
              1548.1505032987857,
              789.374974064018
            ],
            [
              1545.3448087158213,
              792.7664762134909
            ],
            [
              1541.1121895622405,
              800.4655818721669
            ],
            [
              1538.927235640138,
              808.9754155486266
            ],
            [
              1538.6508559880726,
              813.3683443223126
            ],
            [
              1538.927235640138,
              817.7612730959986
            ],
            [
              1541.1121895622405,
              826.2711067724581
            ],
            [
              1542.9863058036979,
              830.2538065146257
            ],
            [
              1548.1505032987857,
              837.3617145806072
            ],
            [
              1554.9201228881775,
              842.9620309518168
            ],
            [
              1558.7772869497057,
              845.0825248389126
            ],
            [
              1567.1331340213746,
              847.7975041312079
            ],
            [
              1571.5000403316546,
              848.3491726911179
            ],
            [
              1580.2685609960952,
              847.7975041312079
            ],
            [
              1588.6244080677643,
              845.0825248389126
            ],
            [
              1592.4815721292925,
              842.9620309518168
            ],
            [
              1599.2511917186844,
              837.3617145806072
            ],
            [
              1602.0568863016488,
              833.9702124311343
            ],
            [
              1606.2895054552296,
              826.2711067724581
            ],
            [
              1608.474459377332,
              817.7612730959986
            ],
            [
              1608.7508390293974,
              813.3683443223126
            ]
          ]
        ]
      }
    },
    {
      "type": "Feature",
      "properties": {
        "id": "garden-footprint-candidate-11",
        "titleAr": "بصمة حديقة مرشحة 11",
        "sourceLayer": "curves",
        "sourceObjectIndex": 247575,
        "sourceAreaSqm": 2524.9,
        "sourceConfidence": "candidate-unregistered",
        "registrationStatus": "requires-site-directory-registration"
      },
      "geometry": {
        "type": "Polygon",
        "coordinates": [
          [
            [
              1221.5496951488312,
              747.6688092164695
            ],
            [
              1219.230322115077,
              732.6514278616958
            ],
            [
              1217.2525863237936,
              727.9968099611096
            ],
            [
              1214.2641947227262,
              723.9168072283594
            ],
            [
              1210.423068413219,
              720.6270267896384
            ],
            [
              1205.9321911330744,
              718.3013165937493
            ],
            [
              1201.3532167958313,
              718.6653430490603
            ],
            [
              1188.6546112348053,
              727.029462031709
            ],
            [
              1187.6561060321899,
              730.5542753751677
            ],
            [
              1190.263805561601,
              734.900566233528
            ],
            [
              1191.0876744378588,
              730.1801403600862
            ],
            [
              1194.3185282920508,
              726.4093255053324
            ],
            [
              1199.1576471458475,
              725.2148785009194
            ],
            [
              1203.7657244720517,
              727.114720147805
            ],
            [
              1206.3569374682518,
              731.372582303376
            ],
            [
              1205.9270826615139,
              736.3383651996214
            ],
            [
              1202.6427467779838,
              740.0876201564997
            ],
            [
              1197.7767474151951,
              741.167353979653
            ],
            [
              1193.8844827535486,
              743.2963961231605
            ],
            [
              1175.8012384988324,
              761.0224487223604
            ],
            [
              1178.1621308864087,
              765.1521075985786
            ],
            [
              1177.7035976144039,
              770.1963399739316
            ],
            [
              1176.3887326580357,
              775.0842139012836
            ],
            [
              1170.3241115354194,
              788.3870378280694
            ],
            [
              1182.5203107306008,
              804.5826601430654
            ],
            [
              1183.1122438435168,
              809.1852532567295
            ],
            [
              1182.1092683026964,
              813.6318333125898
            ],
            [
              1184.3022363376192,
              809.0664016172473
            ],
            [
              1190.4017832716431,
              801.0073121631715
            ],
            [
              1206.5884718124055,
              788.8849266652423
            ],
            [
              1210.149816519152,
              785.2818340092831
            ],
            [
              1216.0103739675287,
              777.0345628607749
            ],
            [
              1219.9701027113024,
              767.7241298268896
            ],
            [
              1221.1761121462641,
              762.80366297399
            ],
            [
              1221.9705233316884,
              752.7174086706714
            ],
            [
              1221.549695148793,
              747.6688092165475
            ],
            [
              1221.5496951488312,
              747.6688092164695
            ]
          ]
        ]
      }
    },
    {
      "type": "Feature",
      "properties": {
        "id": "garden-footprint-candidate-12",
        "titleAr": "بصمة حديقة مرشحة 12",
        "sourceLayer": "curves",
        "sourceObjectIndex": 247555,
        "sourceAreaSqm": 1577.0,
        "sourceConfidence": "candidate-unregistered",
        "registrationStatus": "requires-site-directory-registration"
      },
      "geometry": {
        "type": "Polygon",
        "coordinates": [
          [
            [
              615.9814590386014,
              728.5663386308522
            ],
            [
              617.1846872321603,
              732.6548842405261
            ],
            [
              618.4350567535873,
              736.7292601865711
            ],
            [
              622.4673139748484,
              748.8619446845819
            ],
            [
              631.7801633119045,
              772.6720082717018
            ],
            [
              629.3449933806537,
              775.3883529971868
            ],
            [
              614.8660395652687,
              784.3806413279337
            ],
            [
              611.1481741046457,
              786.4641844973435
            ],
            [
              608.1936055515586,
              786.149987085812
            ],
            [
              604.0910004833534,
              778.6856855487426
            ],
            [
              599.0243988121701,
              771.8390284602417
            ],
            [
              593.08534333299,
              765.7337204584142
            ],
            [
              586.5276448904359,
              760.440501414912
            ],
            [
              590.853214113058,
              748.4304425045952
            ],
            [
              592.7505342720049,
              735.8069627805482
            ],
            [
              595.3657629570843,
              733.793067057537
            ],
            [
              607.8752755995771,
              731.1932875987804
            ],
            [
              611.9568691140748,
              729.9677633495712
            ],
            [
              615.9814590386014,
              728.5663386308522
            ]
          ]
        ]
      }
    },
    {
      "type": "Feature",
      "properties": {
        "id": "garden-footprint-candidate-13",
        "titleAr": "بصمة حديقة مرشحة 13",
        "sourceLayer": "curves",
        "sourceObjectIndex": 247556,
        "sourceAreaSqm": 2698.9,
        "sourceConfidence": "candidate-unregistered",
        "registrationStatus": "requires-site-directory-registration"
      },
      "geometry": {
        "type": "Polygon",
        "coordinates": [
          [
            [
              619.9481284947774,
              720.435536699842
            ],
            [
              621.0960367228048,
              724.6172114550443
            ],
            [
              622.2938161074593,
              728.784875261649
            ],
            [
              624.838297537596,
              737.0757931269691
            ],
            [
              629.0245501644042,
              749.3922886604591
            ],
            [
              638.706963246974,
              773.5359555904508
            ],
            [
              637.8701375745893,
              776.7898302660344
            ],
            [
              627.0678124625988,
              784.0360873161135
            ],
            [
              608.2524371468944,
              794.7960994684481
            ],
            [
              605.1918359261708,
              794.8282236331479
            ],
            [
              599.7410788169755,
              783.046708915944
            ],
            [
              594.6904347365937,
              776.0064589345977
            ],
            [
              588.6370819101971,
              769.8071811552345
            ],
            [
              578.8509630135777,
              762.1490315040953
            ],
            [
              582.6400397796324,
              754.356398789613
            ],
            [
              585.2481789962083,
              746.0932373371882
            ],
            [
              586.6192451268241,
              737.5373969326834
            ],
            [
              586.7237284228033,
              728.8730267534529
            ],
            [
              603.5846292426489,
              726.1117192282668
            ],
            [
              611.8999323610816,
              723.6586406836541
            ],
            [
              615.9619272673049,
              722.1417183399174
            ],
            [
              619.9481284947774,
              720.435536699842
            ]
          ]
        ]
      }
    },
    {
      "type": "Feature",
      "properties": {
        "id": "garden-footprint-candidate-14",
        "titleAr": "بصمة حديقة مرشحة 14",
        "sourceLayer": "curves",
        "sourceObjectIndex": 268427,
        "sourceAreaSqm": 2524.7,
        "sourceConfidence": "candidate-unregistered",
        "registrationStatus": "requires-site-directory-registration"
      },
      "geometry": {
        "type": "Polygon",
        "coordinates": [
          [
            [
              1061.6694758653653,
              725.5240378044668
            ],
            [
              1044.070724810526,
              719.8284222953162
            ],
            [
              1019.9275938267181,
              714.8239198126623
            ],
            [
              1018.92175475813,
              718.4702115355885
            ],
            [
              1019.0454614690304,
              724.6148663587851
            ],
            [
              1017.3849215334947,
              730.5321878278301
            ],
            [
              1014.0823618388837,
              735.7153515054565
            ],
            [
              1021.4461889822119,
              745.3653726036232
            ],
            [
              1025.8057608657102,
              749.665664236853
            ],
            [
              1031.1658557106934,
              752.7002575102147
            ],
            [
              1036.987609223443,
              754.711863614484
            ],
            [
              1061.5738993393556,
              756.2385440258179
            ],
            [
              1067.58935829843,
              757.5592980842557
            ],
            [
              1073.2464040124783,
              759.9940406908479
            ],
            [
              1078.250486692957,
              763.5740440217708
            ],
            [
              1092.4466856404977,
              775.4323543654102
            ],
            [
              1098.1080424457082,
              777.8223170118715
            ],
            [
              1104.2219937505697,
              778.4407681167793
            ],
            [
              1110.1087709038138,
              776.7131201787188
            ],
            [
              1111.1464823569013,
              775.4110818879283
            ],
            [
              1105.0226892796709,
              775.508046679555
            ],
            [
              1099.3719876645794,
              773.145883458956
            ],
            [
              1094.9577180687766,
              768.8643777948448
            ],
            [
              1088.8654837315398,
              758.1966123806867
            ],
            [
              1084.2513285907846,
              754.1625064904492
            ],
            [
              1078.45454780543,
              752.1161333160762
            ],
            [
              1072.3901377139855,
              751.0192289591164
            ],
            [
              1067.785208826217,
              747.30653588318
            ],
            [
              1069.3051698962436,
              742.1246736144878
            ],
            [
              1086.5347764428418,
              748.4727175319858
            ],
            [
              1091.238740311539,
              752.4018757242891
            ],
            [
              1096.255832078164,
              763.5989593393595
            ],
            [
              1099.5991682028834,
              768.6663725400381
            ],
            [
              1105.441993424653,
              770.0550374821426
            ],
            [
              1110.51449859823,
              766.8399654522166
            ],
            [
              1111.7524235349451,
              760.9633559922784
            ],
            [
              1107.4561301068698,
              756.7853682654529
            ],
            [
              1082.6968048981728,
              738.4036668567371
            ],
            [
              1061.6694758653325,
              725.5240378045123
            ],
            [
              1061.6694758653653,
              725.5240378044668
            ]
          ]
        ]
      }
    },
    {
      "type": "Feature",
      "properties": {
        "id": "garden-footprint-candidate-15",
        "titleAr": "بصمة حديقة مرشحة 15",
        "sourceLayer": "curves",
        "sourceObjectIndex": 269405,
        "sourceAreaSqm": 2216.6,
        "sourceConfidence": "candidate-unregistered",
        "registrationStatus": "requires-site-directory-registration"
      },
      "geometry": {
        "type": "Polygon",
        "coordinates": [
          [
            [
              921.905671436456,
              701.0642837230116
            ],
            [
              918.512093277647,
              693.4651967664959
            ],
            [
              926.1061355058206,
              690.0159639624808
            ],
            [
              929.7720638353794,
              689.0980024234598
            ],
            [
              945.9111727267447,
              702.280315114564
            ],
            [
              956.338789750001,
              709.186688233149
            ],
            [
              963.6961212871015,
              713.0718026272809
            ],
            [
              966.7038729254931,
              715.9458843497248
            ],
            [
              968.9350018050966,
              719.4571490204855
            ],
            [
              971.9406394786095,
              731.5387009764977
            ],
            [
              975.9282131068541,
              738.8298139390301
            ],
            [
              981.8677387907178,
              744.6421375986176
            ],
            [
              989.2434564008531,
              748.4709574440292
            ],
            [
              991.9207485823381,
              750.5800971360438
            ],
            [
              992.6204148920416,
              758.874626804381
            ],
            [
              997.246768834238,
              774.8718246506032
            ],
            [
              996.8461535262736,
              776.5871912473103
            ],
            [
              985.8339892764359,
              770.6559282734879
            ],
            [
              975.3013448562061,
              763.9122769862888
            ],
            [
              965.3471243946767,
              756.3381257533388
            ],
            [
              952.8796152444028,
              745.2647032817749
            ],
            [
              936.7460007049945,
              726.1647896956667
            ],
            [
              927.7516863859472,
              712.1221921487781
            ],
            [
              921.905671436456,
              701.0642837230116
            ]
          ]
        ]
      }
    },
    {
      "type": "Feature",
      "properties": {
        "id": "garden-footprint-candidate-16",
        "titleAr": "بصمة حديقة مرشحة 16",
        "sourceLayer": "curves",
        "sourceObjectIndex": 247548,
        "sourceAreaSqm": 3138.8,
        "sourceConfidence": "candidate-unregistered",
        "registrationStatus": "requires-site-directory-registration"
      },
      "geometry": {
        "type": "Polygon",
        "coordinates": [
          [
            [
              1314.641718744454,
              638.2073084725886
            ],
            [
              1318.3371000928832,
              636.4748596720256
            ],
            [
              1321.991316187764,
              634.6571889400398
            ],
            [
              1336.3155846330876,
              626.8312893275014
            ],
            [
              1343.8110713940305,
              623.6078918794653
            ],
            [
              1355.5768662516937,
              620.2630585269263
            ],
            [
              1371.7982220945378,
              618.6984700718119
            ],
            [
              1383.985366550521,
              619.7390652815944
            ],
            [
              1391.5259190492686,
              622.7285787714394
            ],
            [
              1394.7225714668664,
              625.255832735142
            ],
            [
              1399.3713205635959,
              631.9031069680884
            ],
            [
              1401.1540118894395,
              639.8163322605402
            ],
            [
              1399.804668210279,
              647.8148567824659
            ],
            [
              1398.0004926866443,
              651.468697221771
            ],
            [
              1389.8243367873483,
              660.5216039962716
            ],
            [
              1383.081009966016,
              665.0997650644504
            ],
            [
              1375.594945049527,
              668.3232488090359
            ],
            [
              1363.5665052782228,
              670.3794795921153
            ],
            [
              1351.4447965909458,
              668.9739096486537
            ],
            [
              1340.2060554383718,
              664.2197382518043
            ],
            [
              1330.7554074142536,
              656.4998483374723
            ],
            [
              1320.7010056911997,
              643.663936639291
            ],
            [
              1317.780590998164,
              640.8143299730878
            ],
            [
              1314.641718744454,
              638.2073084725886
            ]
          ]
        ]
      }
    },
    {
      "type": "Feature",
      "properties": {
        "id": "garden-footprint-candidate-17",
        "titleAr": "بصمة حديقة مرشحة 17",
        "sourceLayer": "curves",
        "sourceObjectIndex": 247549,
        "sourceAreaSqm": 5139.2,
        "sourceConfidence": "candidate-unregistered",
        "registrationStatus": "requires-site-directory-registration"
      },
      "geometry": {
        "type": "Polygon",
        "coordinates": [
          [
            [
              1295.1766098235466,
              637.2852912531459
            ],
            [
              1310.2842622829144,
              631.3962096271725
            ],
            [
              1331.8355639637389,
              620.1274400912222
            ],
            [
              1343.0318839775548,
              615.3934972251249
            ],
            [
              1358.777289068079,
              611.5924930246455
            ],
            [
              1374.9544011835542,
              610.776124235373
            ],
            [
              1383.0296665994792,
              611.5001141712751
            ],
            [
              1390.8806458528043,
              613.4416848588937
            ],
            [
              1394.5318656800378,
              615.1987386127931
            ],
            [
              1400.9268699754657,
              620.1442374995032
            ],
            [
              1405.7082220872403,
              626.6628808522433
            ],
            [
              1407.3719010436262,
              630.3575819837224
            ],
            [
              1408.504363545405,
              634.2481054450241
            ],
            [
              1409.098006432717,
              642.3104641135117
            ],
            [
              1407.443018810395,
              650.2234316445303
            ],
            [
              1403.668009627199,
              657.3720919976158
            ],
            [
              1398.4003141058242,
              663.5279236720323
            ],
            [
              1392.2240785279507,
              668.7717097227467
            ],
            [
              1385.2953648670346,
              672.9712460143021
            ],
            [
              1377.7890377076844,
              676.0205460382197
            ],
            [
              1369.8945392530127,
              677.8426525686525
            ],
            [
              1361.8111082449461,
              678.3915798834087
            ],
            [
              1353.742751642729,
              677.6534743364048
            ],
            [
              1345.893095962735,
              675.6469639914037
            ],
            [
              1334.9592912109786,
              670.3781684613211
            ],
            [
              1325.5800740218806,
              662.6750147171022
            ],
            [
              1315.5908044526245,
              649.9212131751221
            ],
            [
              1309.6259865136467,
              644.4432707192217
            ],
            [
              1302.7398341245055,
              640.1808990943119
            ],
            [
              1295.1766098236224,
              637.2852912531422
            ],
            [
              1295.1766098235466,
              637.2852912531459
            ]
          ]
        ]
      }
    },
    {
      "type": "Feature",
      "properties": {
        "id": "garden-footprint-candidate-18",
        "titleAr": "بصمة حديقة مرشحة 18",
        "sourceLayer": "curves",
        "sourceObjectIndex": 268451,
        "sourceAreaSqm": 1834.1,
        "sourceConfidence": "candidate-unregistered",
        "registrationStatus": "requires-site-directory-registration"
      },
      "geometry": {
        "type": "Polygon",
        "coordinates": [
          [
            [
              1236.8375217722048,
              614.808349844946
            ],
            [
              1230.136861395092,
              609.3206755785072
            ],
            [
              1221.8373195395752,
              606.8445852464572
            ],
            [
              1217.4855821969156,
              606.8762202905822
            ],
            [
              1205.0105027951204,
              610.660519338955
            ],
            [
              1196.4140374411654,
              612.0183080787879
            ],
            [
              1183.4483884067147,
              610.7596148476971
            ],
            [
              1175.2736068571053,
              607.7736889511064
            ],
            [
              1164.5490873305375,
              600.3792961796332
            ],
            [
              1158.8515540870924,
              593.8004724410305
            ],
            [
              1154.3310613016097,
              586.3509094170422
            ],
            [
              1147.3136052286206,
              571.5607660040687
            ],
            [
              1145.1287492501372,
              575.3257508838707
            ],
            [
              1143.658577097509,
              579.4229817332968
            ],
            [
              1142.8678498512143,
              588.0935957427847
            ],
            [
              1144.175605946073,
              596.6934696207618
            ],
            [
              1147.1392920099486,
              604.8779525320281
            ],
            [
              1151.6115363670647,
              612.3457651984157
            ],
            [
              1157.4276979791157,
              618.8219878407069
            ],
            [
              1164.3736608876925,
              624.0682050381452
            ],
            [
              1172.1937166712542,
              627.891282744915
            ],
            [
              1184.926762303087,
              630.6652819501958
            ],
            [
              1197.9230588028458,
              629.7051778185589
            ],
            [
              1206.202146853311,
              627.01707501869
            ],
            [
              1214.0038856162191,
              623.1439374281675
            ],
            [
              1218.2345587538662,
              622.1644302225483
            ],
            [
              1239.9316032472802,
              620.1503973916277
            ],
            [
              1239.6966406592082,
              618.0978465929852
            ],
            [
              1236.8375217722412,
              614.8083498452173
            ],
            [
              1236.8375217722048,
              614.808349844946
            ]
          ]
        ]
      }
    },
    {
      "type": "Feature",
      "properties": {
        "id": "garden-footprint-candidate-19",
        "titleAr": "بصمة حديقة مرشحة 19",
        "sourceLayer": "curves",
        "sourceObjectIndex": 268688,
        "sourceAreaSqm": 4669.8,
        "sourceConfidence": "candidate-unregistered",
        "registrationStatus": "requires-site-directory-registration"
      },
      "geometry": {
        "type": "Polygon",
        "coordinates": [
          [
            [
              977.7272981088322,
              593.3211108844888
            ],
            [
              977.096340054004,
              597.459106077851
            ],
            [
              974.5020010752763,
              605.4054233640346
            ],
            [
              975.9941671849036,
              608.4269936050956
            ],
            [
              992.1224743112804,
              621.7314405312851
            ],
            [
              999.5714628055217,
              625.5405813502937
            ],
            [
              1007.5429935579407,
              628.0805972615855
            ],
            [
              1015.8225401919685,
              629.2831324591302
            ],
            [
              1024.1872871412863,
              629.1158248375008
            ],
            [
              1036.4025986927818,
              626.31632808301
            ],
            [
              1047.5664279068724,
              620.6224773949058
            ],
            [
              1054.0911394247898,
              615.3850639293348
            ],
            [
              1059.831860871175,
              609.2934856309578
            ],
            [
              1060.3644451848866,
              606.1429585192226
            ],
            [
              1055.6641395780446,
              599.2546348517455
            ],
            [
              1054.2078117790616,
              595.3329834775597
            ],
            [
              1052.2872833946858,
              582.9592830584369
            ],
            [
              1049.1372977223336,
              575.2166383480799
            ],
            [
              1046.9433799556145,
              571.6518646094241
            ],
            [
              1044.3706994175398,
              568.3500163657964
            ],
            [
              1038.2181302977974,
              562.6916729621457
            ],
            [
              1030.977295274092,
              558.5153989042894
            ],
            [
              1022.9985572768087,
              556.0232719377102
            ],
            [
              1014.6679842133578,
              555.3358788323101
            ],
            [
              1006.3886682658905,
              556.4864805396157
            ],
            [
              998.5612214339126,
              559.4194027921484
            ],
            [
              991.5643910857192,
              563.9927300191729
            ],
            [
              985.7367334756893,
              569.9851722280812
            ],
            [
              981.3602319925964,
              577.1067725830104
            ],
            [
              978.646652804214,
              585.0129375721326
            ],
            [
              977.7272981088609,
              593.321110884659
            ],
            [
              977.7272981088322,
              593.3211108844888
            ]
          ]
        ]
      }
    },
    {
      "type": "Feature",
      "properties": {
        "id": "garden-footprint-candidate-20",
        "titleAr": "بصمة حديقة مرشحة 20",
        "sourceLayer": "curves",
        "sourceObjectIndex": 268528,
        "sourceAreaSqm": 3209.3,
        "sourceConfidence": "candidate-unregistered",
        "registrationStatus": "requires-site-directory-registration"
      },
      "geometry": {
        "type": "Polygon",
        "coordinates": [
          [
            [
              1047.843062851429,
              593.321110884659
            ],
            [
              1046.6521231758747,
              584.6563812538755
            ],
            [
              1043.167630696761,
              576.6342749813067
            ],
            [
              1040.639859429278,
              573.0532389328125
            ],
            [
              1034.2478276655704,
              567.0834979989745
            ],
            [
              1030.5026386269153,
              564.8059980920445
            ],
            [
              1026.4822129504266,
              563.0596807837755
            ],
            [
              1017.9189554019457,
              561.280215402328
            ],
            [
              1013.535640815776,
              561.280215402328
            ],
            [
              1004.972383267295,
              563.0596807837755
            ],
            [
              997.2067685521513,
              567.0834979989745
            ],
            [
              993.8065819369501,
              569.8497549904947
            ],
            [
              988.2869655209606,
              576.6342749813067
            ],
            [
              986.2703557304869,
              580.5261552099743
            ],
            [
              983.9106613321894,
              588.9480148165001
            ],
            [
              983.6115333662926,
              593.321110884659
            ],
            [
              984.802473041847,
              601.9858405154425
            ],
            [
              988.2869655209606,
              610.0079467880113
            ],
            [
              990.8147367884437,
              613.5889828365055
            ],
            [
              997.2067685521513,
              619.5587237703435
            ],
            [
              1000.9519575908064,
              621.8362236772734
            ],
            [
              1004.972383267295,
              623.5825409855424
            ],
            [
              1013.535640815776,
              625.3620063669899
            ],
            [
              1017.9189554019457,
              625.3620063669899
            ],
            [
              1026.4822129504266,
              623.5825409855424
            ],
            [
              1034.2478276655704,
              619.5587237703435
            ],
            [
              1037.6480142807716,
              616.7924667788233
            ],
            [
              1043.167630696761,
              610.0079467880113
            ],
            [
              1045.1842404872348,
              606.1160665593437
            ],
            [
              1047.5439348855323,
              597.6942069528179
            ],
            [
              1047.843062851429,
              593.321110884659
            ]
          ]
        ]
      }
    },
    {
      "type": "Feature",
      "properties": {
        "id": "garden-footprint-candidate-21",
        "titleAr": "بصمة حديقة مرشحة 21",
        "sourceLayer": "curves",
        "sourceObjectIndex": 247543,
        "sourceAreaSqm": 1614.9,
        "sourceConfidence": "candidate-unregistered",
        "registrationStatus": "requires-site-directory-registration"
      },
      "geometry": {
        "type": "Polygon",
        "coordinates": [
          [
            [
              1228.5318563192814,
              532.6846667044608
            ],
            [
              1230.622312007393,
              536.680326595938
            ],
            [
              1231.2227845770967,
              541.1496370176195
            ],
            [
              1230.261094535371,
              545.5553668341157
            ],
            [
              1227.8528413336444,
              549.3679275836238
            ],
            [
              1229.1099529032076,
              551.8296159707529
            ],
            [
              1230.8281119869698,
              560.730023609065
            ],
            [
              1231.518616910976,
              569.7209264469874
            ],
            [
              1234.6185700425542,
              578.2277173362297
            ],
            [
              1233.97500787302,
              587.2142804210016
            ],
            [
              1234.87587546881,
              591.2538085963805
            ],
            [
              1247.9147295700172,
              594.9342012074111
            ],
            [
              1250.445972666017,
              598.2850004161385
            ],
            [
              1262.5462789478688,
              622.522621839118
            ],
            [
              1270.6689285482555,
              626.5294430692671
            ],
            [
              1279.2758567356136,
              629.3495210963251
            ],
            [
              1283.6722672757055,
              629.3042978253712
            ],
            [
              1295.82789682795,
              625.1428085636305
            ],
            [
              1287.3406290892,
              621.9814876726481
            ],
            [
              1279.3943624162719,
              617.6358566013657
            ],
            [
              1272.1533229840895,
              612.195726879882
            ],
            [
              1262.9366731646408,
              602.2349137054983
            ],
            [
              1258.0740203118953,
              594.5940845175978
            ],
            [
              1252.953498889111,
              582.0264796006644
            ],
            [
              1244.1257094732068,
              537.581129034899
            ],
            [
              1241.969569724756,
              534.5040567582381
            ],
            [
              1228.5318563192893,
              532.6846667043874
            ],
            [
              1228.5318563192814,
              532.6846667044608
            ]
          ]
        ]
      }
    },
    {
      "type": "Feature",
      "properties": {
        "id": "garden-footprint-candidate-22",
        "titleAr": "بصمة حديقة مرشحة 22",
        "sourceLayer": "curves",
        "sourceObjectIndex": 268435,
        "sourceAreaSqm": 4064.4,
        "sourceConfidence": "candidate-unregistered",
        "registrationStatus": "requires-site-directory-registration"
      },
      "geometry": {
        "type": "Polygon",
        "coordinates": [
          [
            [
              1225.2462715717265,
              558.1941664856859
            ],
            [
              1223.468015738978,
              554.597129138634
            ],
            [
              1215.0059578071669,
              551.6647128975567
            ],
            [
              1210.7346998743885,
              550.3884002622539
            ],
            [
              1197.43246200435,
              548.6614157941736
            ],
            [
              1188.925502417707,
              545.912671026529
            ],
            [
              1181.199456266443,
              541.4180243381177
            ],
            [
              1174.6193930008494,
              535.3685280445492
            ],
            [
              1171.3754599673741,
              535.336698278396
            ],
            [
              1168.7460106991825,
              538.9302005493604
            ],
            [
              1163.813959172122,
              551.3747689961247
            ],
            [
              1152.6530545084104,
              565.3555137344631
            ],
            [
              1153.5671143348018,
              569.5515548773009
            ],
            [
              1156.8279734588343,
              577.8883700350171
            ],
            [
              1163.2830664267487,
              589.654010094209
            ],
            [
              1169.1100831021251,
              596.4261249333919
            ],
            [
              1176.3904594337137,
              601.6041345124332
            ],
            [
              1184.6997337255123,
              604.8861496668544
            ],
            [
              1193.5534573037437,
              606.0808218103599
            ],
            [
              1202.4354389229577,
              605.1184989715264
            ],
            [
              1215.2347488631174,
              601.1300417219228
            ],
            [
              1224.152335447611,
              601.089054784461
            ],
            [
              1228.5022179930359,
              602.1318607582201
            ],
            [
              1236.431915411284,
              606.2116805184561
            ],
            [
              1249.047470321238,
              618.8790346244492
            ],
            [
              1256.1120702389348,
              624.3731571347456
            ],
            [
              1257.2382627368738,
              623.8382180479271
            ],
            [
              1245.5506214224442,
              599.6461230200756
            ],
            [
              1232.7410448471524,
              595.8185775695105
            ],
            [
              1229.3940471987373,
              593.0022284113452
            ],
            [
              1228.5113750861362,
              588.7236988149991
            ],
            [
              1229.6442531365901,
              579.8935661170934
            ],
            [
              1226.822355876171,
              571.4530826386507
            ],
            [
              1225.2462715717265,
              558.1941664856859
            ]
          ]
        ]
      }
    },
    {
      "type": "Feature",
      "properties": {
        "id": "garden-footprint-candidate-23",
        "titleAr": "بصمة حديقة مرشحة 23",
        "sourceLayer": "curves",
        "sourceObjectIndex": 247582,
        "sourceAreaSqm": 3769.8,
        "sourceConfidence": "candidate-unregistered",
        "registrationStatus": "requires-site-directory-registration"
      },
      "geometry": {
        "type": "Polygon",
        "coordinates": [
          [
            [
              1247.559481497133,
              529.9673076835442
            ],
            [
              1248.692159922556,
              535.056211666569
            ],
            [
              1249.79311919392,
              540.1520720303969
            ],
            [
              1251.899710651454,
              550.3638708236762
            ],
            [
              1256.6328742385992,
              575.9968362805896
            ],
            [
              1257.8786315795946,
              581.05744742749
            ],
            [
              1261.7041845415176,
              590.7421064812775
            ],
            [
              1267.1997715524467,
              599.5866528154822
            ],
            [
              1274.188260439007,
              607.3060115670238
            ],
            [
              1278.1736429168427,
              610.6643479167866
            ],
            [
              1286.9660493654624,
              616.2429736700395
            ],
            [
              1296.6142567318768,
              620.1595501173016
            ],
            [
              1306.8072867827186,
              622.2878392976579
            ],
            [
              1312.005840731405,
              622.6576140606886
            ],
            [
              1312.4146027574452,
              623.7878057942243
            ],
            [
              1298.0319443418587,
              629.9171708562627
            ],
            [
              1283.1254219484792,
              634.6315710618945
            ],
            [
              1278.0489476815956,
              634.1966642423454
            ],
            [
              1273.0451556506296,
              632.7375106538038
            ],
            [
              1258.8908058868833,
              626.1626552656029
            ],
            [
              1247.1822470180373,
              603.023403378681
            ],
            [
              1244.1606256252076,
              599.3126329471518
            ],
            [
              1234.1956842570025,
              596.3422780979932
            ],
            [
              1229.883300278476,
              593.6453089489918
            ],
            [
              1228.4963205442557,
              588.7971279798846
            ],
            [
              1229.6375820857777,
              583.710148799678
            ],
            [
              1229.4724795961467,
              578.5236680766175
            ],
            [
              1226.4459943214897,
              568.6459385718706
            ],
            [
              1225.2727365589915,
              558.3312604116218
            ],
            [
              1222.9060756504032,
              554.398792367943
            ],
            [
              1213.047865985204,
              551.0026431283294
            ],
            [
              1209.4405979949554,
              547.6341584602274
            ],
            [
              1208.6388815465675,
              542.5419161060006
            ],
            [
              1209.5157025553829,
              541.5738332416204
            ],
            [
              1211.9363728298672,
              545.5733735384028
            ],
            [
              1216.2257662073648,
              548.3723449414862
            ],
            [
              1221.3340194630537,
              547.9990150452776
            ],
            [
              1225.1709962804812,
              544.606408204306
            ],
            [
              1226.1658999716483,
              539.5821368036388
            ],
            [
              1223.9120557943606,
              534.9828626340806
            ],
            [
              1219.331769942542,
              532.6906763462998
            ],
            [
              1199.0191897906311,
              509.34698998240754
            ],
            [
              1187.5816655141887,
              498.68640637179556
            ],
            [
              1179.4594142549488,
              492.1504752148686
            ],
            [
              1178.5308453051832,
              488.5793073941246
            ],
            [
              1181.8027778945552,
              485.3629573323004
            ],
            [
              1201.1709498178934,
              502.7916931207408
            ],
            [
              1202.8614715487593,
              501.39796882353255
            ],
            [
              1201.9644722911362,
              496.2665665154691
            ],
            [
              1198.501833077919,
              486.44057929374117
            ],
            [
              1191.4583630642605,
              472.4915303279305
            ],
            [
              1192.767907899799,
              469.2841917759141
            ],
            [
              1199.5825111504937,
              483.3459186171201
            ],
            [
              1204.7942430001576,
              498.0736172436583
            ],
            [
              1223.0136378982827,
              523.467457342496
            ],
            [
              1227.140848353732,
              526.6228730358971
            ],
            [
              1231.997348816613,
              528.4681149159144
            ],
            [
              1237.1711083845084,
              529.0719461742947
            ],
            [
              1242.365294940832,
              529.5196269289204
            ],
            [
              1247.559481497133,
              529.9673076835442
            ]
          ]
        ]
      }
    },
    {
      "type": "Feature",
      "properties": {
        "id": "garden-footprint-candidate-24",
        "titleAr": "بصمة حديقة مرشحة 24",
        "sourceLayer": "curves",
        "sourceObjectIndex": 247584,
        "sourceAreaSqm": 1947.3,
        "sourceConfidence": "candidate-unregistered",
        "registrationStatus": "requires-site-directory-registration"
      },
      "geometry": {
        "type": "Polygon",
        "coordinates": [
          [
            [
              1229.887869124117,
              464.2719097371587
            ],
            [
              1222.6045223867018,
              444.7103346251894
            ],
            [
              1219.8125648265334,
              444.77211528915905
            ],
            [
              1202.5656145024682,
              456.5472291466301
            ],
            [
              1199.2535362317392,
              459.07127597460806
            ],
            [
              1197.5614842520704,
              462.82227001593355
            ],
            [
              1198.2694276050916,
              466.875887216518
            ],
            [
              1203.8956461378891,
              478.0636639084728
            ],
            [
              1209.4325562691029,
              493.8130051693586
            ],
            [
              1211.3881248626578,
              497.49646059054453
            ],
            [
              1226.078429809432,
              517.7986464760861
            ],
            [
              1229.0223072027136,
              520.7319553487397
            ],
            [
              1232.7894270814013,
              522.4863319756837
            ],
            [
              1245.2463971245268,
              523.7457013959123
            ],
            [
              1245.3964357998655,
              520.6385765979355
            ],
            [
              1241.3678177991465,
              504.4252562813226
            ],
            [
              1229.887869124093,
              464.2719097371182
            ],
            [
              1229.887869124117,
              464.2719097371587
            ]
          ]
        ]
      }
    },
    {
      "type": "Feature",
      "properties": {
        "id": "garden-footprint-candidate-25",
        "titleAr": "بصمة حديقة مرشحة 25",
        "sourceLayer": "curves",
        "sourceObjectIndex": 248922,
        "sourceAreaSqm": 1905.2,
        "sourceConfidence": "candidate-unregistered",
        "registrationStatus": "requires-site-directory-registration"
      },
      "geometry": {
        "type": "Polygon",
        "coordinates": [
          [
            [
              851.7908339456861,
              412.9395140879428
            ],
            [
              866.7486210998811,
              404.99318091713974
            ],
            [
              878.3615045291705,
              399.84059189564846
            ],
            [
              890.2652613077728,
              395.4011313740833
            ],
            [
              906.5066160430185,
              390.60850548247106
            ],
            [
              914.866092127994,
              389.26265724071516
            ],
            [
              927.5545931103368,
              388.91410678342663
            ],
            [
              940.2237674391716,
              389.74867487366794
            ],
            [
              944.39510510007,
              390.4791842127453
            ],
            [
              946.3119646720585,
              391.701056984641
            ],
            [
              919.8672831018363,
              404.2514732137165
            ],
            [
              909.0541880093914,
              410.9222233975205
            ],
            [
              891.8419249690056,
              423.2492559671881
            ],
            [
              875.7510149905138,
              437.0079022308705
            ],
            [
              872.804306762264,
              435.4550364914538
            ],
            [
              869.9076767828104,
              432.36484587842335
            ],
            [
              866.6342680287314,
              431.6479687689301
            ],
            [
              862.4759062678172,
              432.1448500214109
            ],
            [
              858.620591976796,
              430.5091803630911
            ],
            [
              856.0881836648107,
              427.17364867307697
            ],
            [
              855.5485873293095,
              423.0206137215729
            ],
            [
              857.1445440992179,
              419.14869100768976
            ],
            [
              851.7908339457354,
              412.93951408797875
            ],
            [
              851.7908339456861,
              412.9395140879428
            ]
          ]
        ]
      }
    },
    {
      "type": "Feature",
      "properties": {
        "id": "garden-footprint-candidate-26",
        "titleAr": "بصمة حديقة مرشحة 26",
        "sourceLayer": "curves",
        "sourceObjectIndex": 247923,
        "sourceAreaSqm": 1542.7,
        "sourceConfidence": "candidate-unregistered",
        "registrationStatus": "requires-site-directory-registration"
      },
      "geometry": {
        "type": "Polygon",
        "coordinates": [
          [
            [
              714.0647066477686,
              308.0514078242704
            ],
            [
              703.0676426642526,
              315.16882504538194
            ],
            [
              696.5255780922882,
              320.9364188260389
            ],
            [
              691.1590606772268,
              327.81131793193595
            ],
            [
              687.1520949188148,
              335.5577992165797
            ],
            [
              683.2209204830261,
              348.0458456086491
            ],
            [
              682.1218734985789,
              356.69750080737253
            ],
            [
              682.6541252119251,
              365.40242757703925
            ],
            [
              685.2738667328299,
              377.16091729228606
            ],
            [
              698.309088954176,
              378.1121883589608
            ],
            [
              701.7996463622569,
              375.76791371882564
            ],
            [
              703.2074282093313,
              371.63922560934645
            ],
            [
              702.6706631392647,
              368.44071190175384
            ],
            [
              698.9485284175582,
              366.88840682808257
            ],
            [
              704.8280344945692,
              350.46569729417683
            ],
            [
              707.0436236094197,
              346.7047893286899
            ],
            [
              712.5843741904596,
              339.9737895990403
            ],
            [
              719.398109184914,
              334.53510503499524
            ],
            [
              726.7634047707814,
              329.8410127608239
            ],
            [
              725.7997423000288,
              326.46477125434126
            ],
            [
              714.0647066477686,
              308.0514078242704
            ]
          ]
        ]
      }
    },
    {
      "type": "Feature",
      "properties": {
        "id": "garden-footprint-candidate-27",
        "titleAr": "بصمة حديقة مرشحة 27",
        "sourceLayer": "curves",
        "sourceObjectIndex": 247922,
        "sourceAreaSqm": 1585.6,
        "sourceConfidence": "candidate-unregistered",
        "registrationStatus": "requires-site-directory-registration"
      },
      "geometry": {
        "type": "Polygon",
        "coordinates": [
          [
            [
              722.5820251957048,
              302.62321788305417
            ],
            [
              734.6411630116214,
              321.54511999813144
            ],
            [
              737.5807521652176,
              322.94698666694705
            ],
            [
              749.1166311937794,
              316.02819068954375
            ],
            [
              757.5966299465172,
              313.1409995103768
            ],
            [
              762.0192930167708,
              312.39316558666746
            ],
            [
              770.9771098696788,
              312.3317735574501
            ],
            [
              779.8954795121462,
              313.3398549323847
            ],
            [
              782.336349341559,
              315.45256117114843
            ],
            [
              782.7287122380667,
              319.19644460594225
            ],
            [
              796.1079277539857,
              320.68468793178556
            ],
            [
              799.9756121158605,
              318.7469873670441
            ],
            [
              801.1130191813551,
              314.47516479940634
            ],
            [
              801.6187349098645,
              310.01616278297126
            ],
            [
              801.0768391976219,
              306.43419809664124
            ],
            [
              792.7349979993596,
              303.2743317661792
            ],
            [
              782.3495012226266,
              294.81768325610426
            ],
            [
              778.1195524830498,
              293.36041420110837
            ],
            [
              755.8174654869076,
              290.9561066534071
            ],
            [
              746.8780425944166,
              291.58622594318786
            ],
            [
              734.0947447745334,
              295.6608648836801
            ],
            [
              722.5820251957048,
              302.62321788305417
            ]
          ]
        ]
      }
    },
    {
      "type": "Feature",
      "properties": {
        "id": "garden-footprint-candidate-28",
        "titleAr": "بصمة حديقة مرشحة 28",
        "sourceLayer": "curves",
        "sourceObjectIndex": 247570,
        "sourceAreaSqm": 1551.9,
        "sourceConfidence": "candidate-unregistered",
        "registrationStatus": "requires-site-directory-registration"
      },
      "geometry": {
        "type": "Polygon",
        "coordinates": [
          [
            [
              999.6017277273411,
              306.3257913230118
            ],
            [
              1000.2608217924786,
              293.7405467473217
            ],
            [
              999.5485821276318,
              291.7445253189055
            ],
            [
              988.1245834836026,
              297.1112132880071
            ],
            [
              980.1358744327342,
              299.76651934166307
            ],
            [
              971.9320211049335,
              301.6551466510971
            ],
            [
              959.3837749300576,
              303.01551524496904
            ],
            [
              913.1604379684086,
              300.47996841413374
            ],
            [
              862.6565452112658,
              301.43291215059287
            ],
            [
              833.2892952373455,
              299.334341557931
            ],
            [
              825.0502086870364,
              300.9800909671079
            ],
            [
              821.1344480700295,
              302.5217773288582
            ],
            [
              818.5082711848456,
              305.66730334718216
            ],
            [
              817.1266815078468,
              309.6321318773063
            ],
            [
              818.7232230565686,
              312.5780269932088
            ],
            [
              831.337394306316,
              312.9364292395271
            ],
            [
              919.6189376435877,
              307.9979774930697
            ],
            [
              999.6017277273057,
              306.3257913231072
            ],
            [
              999.6017277273411,
              306.3257913230118
            ]
          ]
        ]
      }
    }
  ],
  "metadata": {
    "coordinateSpace": "KAGA-SOURCE-2D-V1",
    "axisDirection": {
      "x": "right",
      "y": "down"
    },
    "units": "model-meters-transformed-to-svg"
  }
}
